{
  "type": "FeatureCollection",
  "features": [
    {
      "type": "Feature",
      "properties": {
        "norad_id": 37781,
        "name": "HAIYANG-2A",
        "group": "resource",
        "lat": -37.63649593353386,
        "lon": 158.46460966886968,
        "alt_km": 975.1632649113435,
        "timestamp": "2025-12-10T18:56:59.718756+00:00",
        "meta_object_name": "HAIYANG-2A",
        "meta_object_id": "2011-043A",
        "meta_epoch": "2025-12-10T10:55:45.440256",
        "meta_mean_motion": 13.78835644,
        "meta_eccentricity": 0.0001678,
        "meta_inclination": 99.3377,
        "meta_ra_of_asc_node": 345.4246,
        "meta_arg_of_pericenter": 85.211,
        "meta_mean_anomaly": 274.9233,
        "meta_ephemeris_type": 0,
        "meta_classification_type": "U",
        "meta_norad_cat_id": 37781,
        "meta_element_set_no": 999,
        "meta_rev_at_epoch": 72067,
        "meta_bstar": 0.00030158,
        "meta_mean_motion_dot": 2.63e-06,
        "meta_mean_motion_ddot": 0,
        "tle_line1": "1 37781U 11043A   25344.45538704  .00000263  00000+0  30158-3 0  9999",
        "tle_line2": "2 37781  99.3377 345.4246 0001678  85.2110 274.9233 13.78835644720674"
      },
      "geometry": {
        "type": "Point",
        "coordinates": [
          158.46460966886968,
          -37.63649593353386
        ]
      }
    },
    {
      "type": "Feature",
      "properties": {
        "norad_id": 37791,
        "name": "RASAT",
        "group": "resource",
        "lat": 68.90835920907864,
        "lon": 52.50686331638784,
        "alt_km": 645.5989831573725,
        "timestamp": "2025-12-10T18:56:59.718767+00:00",
        "meta_object_name": "RASAT",
        "meta_object_id": "2011-044D",
        "meta_epoch": "2025-12-10T12:20:37.271328",
        "meta_mean_motion": 14.6790589,
        "meta_eccentricity": 0.0021942,
        "meta_inclination": 98.0651,
        "meta_ra_of_asc_node": 73.8051,
        "meta_arg_of_pericenter": 71.5635,
        "meta_mean_anomaly": 345.1941,
        "meta_ephemeris_type": 0,
        "meta_classification_type": "U",
        "meta_norad_cat_id": 37791,
        "meta_element_set_no": 999,
        "meta_rev_at_epoch": 76550,
        "meta_bstar": 0.00024658,
        "meta_mean_motion_dot": 1.366e-05,
        "meta_mean_motion_ddot": 0,
        "tle_line1": "1 37791U 11044D   25344.51432027  .00001366  00000+0  24658-3 0  9992",
        "tle_line2": "2 37791  98.0651  73.8051 0021942  71.5635 345.1941 14.67905890765506"
      },
      "geometry": {
        "type": "Point",
        "coordinates": [
          52.50686331638784,
          68.90835920907864
        ]
      }
    },
    {
      "type": "Feature",
      "properties": {
        "norad_id": 37841,
        "name": "SRMSAT",
        "group": "resource",
        "lat": -13.536129163700338,
        "lon": -18.721170783643508,
        "alt_km": 850.3580040396755,
        "timestamp": "2025-12-10T18:56:59.718777+00:00",
        "meta_object_name": "SRMSAT",
        "meta_object_id": "2011-058D",
        "meta_epoch": "2025-12-10T09:33:52.501248",
        "meta_mean_motion": 14.11510269,
        "meta_eccentricity": 0.0011715,
        "meta_inclination": 19.9705,
        "meta_ra_of_asc_node": 122.1206,
        "meta_arg_of_pericenter": 287.5005,
        "meta_mean_anomaly": 104.46,
        "meta_ephemeris_type": 0,
        "meta_classification_type": "U",
        "meta_norad_cat_id": 37841,
        "meta_element_set_no": 999,
        "meta_rev_at_epoch": 73111,
        "meta_bstar": 0.00014098,
        "meta_mean_motion_dot": 5.25e-06,
        "meta_mean_motion_ddot": 0,
        "tle_line1": "1 37841U 11058D   25344.39852432  .00000525  00000+0  14098-3 0  9998",
        "tle_line2": "2 37841  19.9705 122.1206 0011715 287.5005 104.4600 14.11510269731110"
      },
      "geometry": {
        "type": "Point",
        "coordinates": [
          -18.721170783643508,
          -13.536129163700338
        ]
      }
    },
    {
      "type": "Feature",
      "properties": {
        "norad_id": 38012,
        "name": "PLEIADES 1A",
        "group": "resource",
        "lat": -67.45559139481465,
        "lon": 77.86762434242017,
        "alt_km": 705.8180168489844,
        "timestamp": "2025-12-10T18:56:59.718787+00:00",
        "meta_object_name": "PLEIADES 1A",
        "meta_object_id": "2011-076F",
        "meta_epoch": "2025-12-10T11:17:20.271264",
        "meta_mean_motion": 14.58558632,
        "meta_eccentricity": 0.0001348,
        "meta_inclination": 98.1823,
        "meta_ra_of_asc_node": 57.2738,
        "meta_arg_of_pericenter": 73.1692,
        "meta_mean_anomaly": 342.8653,
        "meta_ephemeris_type": 0,
        "meta_classification_type": "U",
        "meta_norad_cat_id": 38012,
        "meta_element_set_no": 999,
        "meta_rev_at_epoch": 74448,
        "meta_bstar": 0.00019309,
        "meta_mean_motion_dot": 8.52e-06,
        "meta_mean_motion_ddot": 0,
        "tle_line1": "1 38012U 11076F   25344.47037351  .00000852  00000+0  19309-3 0  9996",
        "tle_line2": "2 38012  98.1823  57.2738 0001348  73.1692 342.8653 14.58558632744488"
      },
      "geometry": {
        "type": "Point",
        "coordinates": [
          77.86762434242017,
          -67.45559139481465
        ]
      }
    },
    {
      "type": "Feature",
      "properties": {
        "norad_id": 38038,
        "name": "ZIYUAN 1-02C (ZY 1-02C)",
        "group": "resource",
        "lat": -16.994588625624115,
        "lon": 53.43775604704571,
        "alt_km": 774.6865001567257,
        "timestamp": "2025-12-10T18:56:59.718797+00:00",
        "meta_object_name": "ZIYUAN 1-02C (ZY 1-02C)",
        "meta_object_id": "2011-079A",
        "meta_epoch": "2025-12-10T10:43:43.248576",
        "meta_mean_motion": 14.38008479,
        "meta_eccentricity": 0.0007035,
        "meta_inclination": 98.4332,
        "meta_ra_of_asc_node": 50.5028,
        "meta_arg_of_pericenter": 144.2197,
        "meta_mean_anomaly": 226.4296,
        "meta_ephemeris_type": 0,
        "meta_classification_type": "U",
        "meta_norad_cat_id": 38038,
        "meta_element_set_no": 999,
        "meta_rev_at_epoch": 73208,
        "meta_bstar": 0.00031234,
        "meta_mean_motion_dot": 9.02e-06,
        "meta_mean_motion_ddot": 0,
        "tle_line1": "1 38038U 11079A   25344.44702834  .00000902  00000+0  31234-3 0  9996",
        "tle_line2": "2 38038  98.4332  50.5028 0007035 144.2197 226.4296 14.38008479732081"
      },
      "geometry": {
        "type": "Point",
        "coordinates": [
          53.43775604704571,
          -16.994588625624115
        ]
      }
    },
    {
      "type": "Feature",
      "properties": {
        "norad_id": 38046,
        "name": "ZIYUAN 3-1 (ZY 3-1)",
        "group": "resource",
        "lat": -54.83925490134668,
        "lon": 61.46449733419875,
        "alt_km": 370.55197992672674,
        "timestamp": "2025-12-10T18:56:59.718807+00:00",
        "meta_object_name": "ZIYUAN 3-1 (ZY 3-1)",
        "meta_object_id": "2012-001A",
        "meta_epoch": "2025-12-10T16:07:23.249568",
        "meta_mean_motion": 15.68140977,
        "meta_eccentricity": 0.0001905,
        "meta_inclination": 97.1753,
        "meta_ra_of_asc_node": 51.0411,
        "meta_arg_of_pericenter": 2.2419,
        "meta_mean_anomaly": 357.8851,
        "meta_ephemeris_type": 0,
        "meta_classification_type": "U",
        "meta_norad_cat_id": 38046,
        "meta_element_set_no": 999,
        "meta_rev_at_epoch": 77464,
        "meta_bstar": 0.00086097,
        "meta_mean_motion_dot": 0.00096562,
        "meta_mean_motion_ddot": 0,
        "tle_line1": "1 38046U 12001A   25344.67179687  .00096562  00000+0  86097-3 0  9994",
        "tle_line2": "2 38046  97.1753  51.0411 0001905   2.2419 357.8851 15.68140977774643"
      },
      "geometry": {
        "type": "Point",
        "coordinates": [
          61.46449733419875,
          -54.83925490134668
        ]
      }
    },
    {
      "type": "Feature",
      "properties": {
        "norad_id": 38338,
        "name": "ARIRANG-3 (KOMPSAT-3)",
        "group": "resource",
        "lat": 13.311309466657782,
        "lon": 121.35133980145224,
        "alt_km": 692.6571036655369,
        "timestamp": "2025-12-10T18:56:59.718817+00:00",
        "meta_object_name": "ARIRANG-3 (KOMPSAT-3)",
        "meta_object_id": "2012-025B",
        "meta_epoch": "2025-12-10T11:37:09.595776",
        "meta_mean_motion": 14.61708069,
        "meta_eccentricity": 0.0005518,
        "meta_inclination": 98.3319,
        "meta_ra_of_asc_node": 299.0566,
        "meta_arg_of_pericenter": 346.2912,
        "meta_mean_anomaly": 13.8138,
        "meta_ephemeris_type": 0,
        "meta_classification_type": "U",
        "meta_norad_cat_id": 38338,
        "meta_element_set_no": 999,
        "meta_rev_at_epoch": 72377,
        "meta_bstar": 0.00020986,
        "meta_mean_motion_dot": 9.97e-06,
        "meta_mean_motion_ddot": 0,
        "tle_line1": "1 38338U 12025B   25344.48413884  .00000997  00000+0  20986-3 0  9995",
        "tle_line2": "2 38338  98.3319 299.0566 0005518 346.2912  13.8138 14.61708069723775"
      },
      "geometry": {
        "type": "Point",
        "coordinates": [
          121.35133980145224,
          13.311309466657782
        ]
      }
    }
  ]
}